IRIDIUM 166             
1 43570U 18061B   25337.31525627  .00000163  00000+0  51243-4 0  9994
2 43570  86.3968 138.6421 0002157  94.7048 265.4394 14.34218252385329
IRIDIUM 158             
1 43571U 18061C   25337.21377517 -.00000035  00000+0 -19625-4 0  9995
2 43571  86.3973 138.6944 0001665  93.0694 267.0692 14.34217481385274
IRIDIUM 165             
1 43572U 18061D   25336.96007439  .00000061  00000+0  14630-4 0  9998
2 43572  86.3970 138.8428 0002159  93.1634 266.9809 14.34218118385260
IRIDIUM 155             
1 43573U 18061E   25337.20109262  .00000035  00000+0  53979-5 0  9995
2 43573  86.3966 138.6212 0001916  98.4195 261.7218 14.34217947385261
IRIDIUM 154             
1 43574U 18061F   25337.18207434  .00000039  00000+0  68986-5 0  9991
2 43574  86.3969 138.7529 0002047  90.8913 269.2517 14.34212540385312
IRIDIUM 163             
1 43575U 18061G   25337.37234895  .00000151  00000+0  46746-4 0  9998
2 43575  86.3967 138.5949 0001854  89.2845 270.8563 14.34217499385313
IRIDIUM 156             
1 43576U 18061H   25337.20743472 -.00000022  00000+0 -14961-4 0  9990
2 43576  86.3970 138.6709 0001874 100.6334 259.5073 14.34217385385286
IRIDIUM 164             
1 43577U 18061J   25337.18842337  .00000124  00000+0  37238-4 0  9991
2 43577  86.3967 138.7159 0002194  93.2814 266.8633 14.34217914385325
